OBJECT_NAME,OBJECT_ID,EPOCH,MEAN_MOTION,ECCENTRICITY,INCLINATION,RA_OF_ASC_NODE,ARG_OF_PERICENTER,MEAN_ANOMALY,EPHEMERIS_TYPE,CLASSIFICATION_TYPE,NORAD_CAT_ID,ELEMENT_SET_NO,REV_AT_EPOCH,BSTAR,MEAN_MOTION_DOT,MEAN_MOTION_DDOT
SL-16 R/B,1994-077B,2026-07-12T03:15:21.392064,14.15574887,.0004089,70.9825,90.6765,305.7671,54.3071,0,U,23405,999,63384,-.95767698E-4,-.235E-5,0
ARIANE 40+ R/B,1995-021B,2026-07-12T03:14:54.627936,14.39846545,.00078159,98.4401,262.8487,124.3604,267.0722,0,U,23561,999,63715,.5104853E-4,.117E-5,0
SL-16 R/B,1995-058B,2026-07-12T05:15:48.237984,14.15508045,.00146064,71.0212,278.8033,286.6464,73.3055,0,U,23705,999,58547,.17966054E-4,-.13E-6,0
SL-16 R/B,1996-051B,2026-07-12T04:08:02.120928,14.12455271,.00175659,70.7648,271.7742,302.0291,57.9122,0,U,24298,999,53922,.10137271E-3,.138E-5,0
ORBVIEW 2 (SEASTAR),1997-037A,2026-07-11T09:57:00.863712,14.35565701,.00031792,98.8709,0.1077,68.4004,291.7519,0,U,24883,999,52622,.59286711E-4,.124E-5,0
SL-16 R/B,1998-043G,2026-07-11T20:23:23.453664,14.26072367,.00102126,98.8378,147.2228,20.7516,339.4077,0,U,25400,999,45668,.15857049E-4,-.8E-7,0
SL-16 R/B,1998-045B,2026-07-12T04:03:33.562080,14.16206363,.00083372,71.0116,279.7925,210.9569,149.1064,0,U,25407,999,44472,-.10511241E-3,-.256E-5,0
ISS (ZARYA),1998-067A,2026-07-12T03:41:07.946016,15.48987212,.00067009,51.6303,176.5328,285.7692,74.2557,0,U,25544,999,57562,.96681198E-4,.4878E-4,0
CZ-4B R/B,1999-025C,2026-07-12T02:30:45.861408,14.18287346,.00368072,98.6473,234.3146,348.7289,35.8539,0,U,25732,999,40580,.25245812E-4,.9E-7,0
OKEAN-O,1999-039A,2026-07-12T03:38:41.841888,14.80495232,.00009325,97.9303,251.6616,81.5197,278.6121,0,U,25860,999,45280,.43505699E-4,.281E-5,0
SL-16 R/B,1999-039B,2026-07-12T03:36:41.906592,14.81868951,.00140915,97.9824,251.9407,208.7043,151.3395,0,U,25861,999,45529,.38747357E-4,.253E-5,0
DELTA 2 R/B,1999-041E,2026-07-12T07:16:00.649056,14.12076723,.05013176,51.7614,163.4543,356.2165,3.5037,0,U,25876,999,38063,.25224857E-3,.1331E-4,0
HELIOS 1B,1999-064A,2026-07-12T04:38:13.358688,14.88070775,.00020856,98.1589,99.0547,57.7320,302.4097,0,U,25977,999,70377,.82671901E-4,.701E-5,0
TERRA,1999-068A,2026-07-12T06:53:09.062880,14.61122270,.00032951,97.9443,241.8363,128.3138,290.4742,0,U,25994,999,41327,.4902336E-4,.197E-5,0
SL-16 R/B,2000-006B,2026-07-12T00:06:57.980736,14.15838815,.00170694,71.0002,196.4413,344.4104,15.6491,0,U,26070,999,36615,-.96141638E-4,-.237E-5,0
TITAN 4B R/B,2000-047B,2026-07-12T05:26:20.591808,15.10324548,.00459047,67.9872,50.0855,261.6917,97.9026,0,U,26474,999,41171,.88912331E-4,.1354E-4,0
ENVISAT,2002-009A,2026-07-12T07:13:46.226208,14.39070376,.00013425,98.3846,144.0613,83.9458,87.9189,0,U,27386,999,27709,.20083774E-4,.19E-6,0
IDEFIX & ARIANE 42P R/B,2002-021B,2026-07-12T07:11:31.060320,14.31092973,.00117096,98.5943,130.5111,174.8358,185.2948,0,U,27422,999,26184,.49605823E-4,.87E-6,0
AQUA,2002-022A,2026-07-12T07:32:03.304032,14.62194579,.00008471,98.4293,163.1016,107.7540,358.1104,0,U,27424,999,28694,.8825197E-4,.395E-5,0
CZ-4B R/B,2002-024C,2026-07-11T23:51:49.252320,14.14567830,.00506343,98.8688,245.6518,31.0033,17.9338,0,U,27432,999,24681,.23596926E-4,.2E-7,0
MIDORI II (ADEOS-II),2002-056A,2026-07-11T20:21:51.528384,14.29362111,.0001617,98.7892,152.3199,43.6524,316.4785,0,U,27597,999,22803,.62714914E-4,.114E-5,0
H-2A R/B,2002-056E,2026-07-11T20:29:09.557376,14.33832769,.00706925,98.3326,148.6307,150.7915,263.9999,0,U,27601,999,23190,.5669937E-4,.121E-5,0
CZ-4B R/B,2003-049C,2026-07-11T23:40:02.031168,14.55114759,.00474372,98.6908,192.8211,211.1841,148.6538,0,U,28059,999,20467,.4455953E-4,.143E-5,0
CZ-2C R/B,2004-012C,2026-07-12T03:37:32.400480,15.84548107,.00115805,97.7081,271.8195,200.8727,159.2071,0,U,28222,999,22384,.44259587E-3,.102383E-2,0
SL-16 R/B,2004-021B,2026-07-12T08:02:01.889376,14.14616031,.00064135,71.0025,330.9110,227.3991,132.6591,0,U,28353,999,14046,.64403238E-4,.76E-6,0
CZ-4B R/B,2004-035C,2026-07-12T00:54:13.907808,15.30964386,.00290485,97.3361,225.8348,244.4773,115.3464,0,U,28415,999,19892,.15152141E-3,.4512E-4,0
CZ-2C R/B,2004-046B,2026-07-12T07:02:31.342848,14.27032494,.01399741,98.1921,100.5024,145.9266,215.1000,0,U,28480,999,12627,.30429806E-4,.42E-6,0
ARIANE 5 R/B,2004-049H,2026-07-11T10:43:35.851872,14.85476298,.00828051,98.2738,5.6402,310.5973,48.8055,0,U,28499,999,16416,.38804579E-4,.289E-5,0
CZ-2D R/B,2005-024B,2026-07-12T06:03:02.380032,15.72473171,.0001945,97.3476,213.9831,201.2089,158.9094,0,U,28738,999,15927,.3290684E-3,.43805E-3,0
ALOS (DAICHI),2006-002A,2026-07-11T20:47:04.971264,14.70098011,.00007748,98.1336,148.3587,90.2748,269.8547,0,U,28931,999,9172,.94674645E-4,.519E-5,0
