SL-16 R/B               
1 23405U 94077B   26193.13566426 -.00000235  00000+0 -95768-4 0  9995
2 23405  70.9825  90.6765 0004089 305.7671  54.3071 14.15574887633844
ARIANE 40+ R/B          
1 23561U 95021B   26193.13535449  .00000117  00000+0  51049-4 0  9990
2 23561  98.4401 262.8487 0007815 124.3604 267.0722 14.39846545637150
SL-16 R/B               
1 23705U 95058B   26193.21930831 -.00000013  00000+0  17966-4 0  9999
2 23705  71.0212 278.8033 0014606 286.6464  73.3055 14.15508045585471
SL-16 R/B               
1 24298U 96051B   26193.17224677  .00000138  00000+0  10137-3 0  9999
2 24298  70.7648 271.7742 0017565 302.0291  57.9122 14.12455271539229
ORBVIEW 2 (SEASTAR)     
1 24883U 97037A   26192.41459333  .00000124  00000+0  59287-4 0  9994
2 24883  98.8709   0.1077 0003179  68.4004 291.7519 14.35565701526223
SL-16 R/B               
1 25400U 98043G   26192.84957701 -.00000008  00000+0  15857-4 0  9994
2 25400  98.8378 147.2228 0010212  20.7516 339.4077 14.26072367456689
SL-16 R/B               
1 25407U 98045B   26193.16913845 -.00000256  00000+0 -10511-3 0  9997
2 25407  71.0116 279.7925 0008337 210.9569 149.1064 14.16206363444728
ISS (ZARYA)             
1 25544U 98067A   26193.15356419  .00004878  00000+0  96681-4 0  9995
2 25544  51.6303 176.5328 0006700 285.7692  74.2557 15.48987212575626
CZ-4B R/B               
1 25732U 99025C   26193.10469747  .00000009  00000+0  25246-4 0  9994
2 25732  98.6473 234.3146 0036807 348.7289  35.8539 14.18287346405800
OKEAN-O                 
1 25860U 99039A   26193.15187317  .00000281  00000+0  43506-4 0  9997
2 25860  97.9303 251.6616 0000932  81.5197 278.6121 14.80495232452800
SL-16 R/B               
1 25861U 99039B   26193.15048503  .00000253  00000+0  38747-4 0  9991
2 25861  97.9824 251.9407 0014091 208.7043 151.3395 14.81868951455293
DELTA 2 R/B             
1 25876U 99041E   26193.30278529  .00001331  00000+0  25225-3 0  9994
2 25876  51.7614 163.4543 0501317 356.2165   3.5037 14.12076723380636
HELIOS 1B               
1 25977U 99064A   26193.19321017  .00000701  00000+0  82672-4 0  9999
2 25977  98.1589  99.0547 0002085  57.7320 302.4097 14.88070775703771
TERRA                   
1 25994U 99068A   26193.28691045  .00000197  00000+0  49023-4 0  9995
2 25994  97.9443 241.8363 0003295 128.3138 290.4742 14.61122270413270
SL-16 R/B               
1 26070U 00006B   26193.00483774 -.00000237  00000+0 -96142-4 0  9994
2 26070  71.0002 196.4413 0017069 344.4104  15.6491 14.15838815366159
TITAN 4B R/B            
1 26474U 00047B   26193.22662722  .00001354  00000+0  88912-4 0  9998
2 26474  67.9872  50.0855 0045904 261.6917  97.9026 15.10324548411711
ENVISAT                 
1 27386U 02009A   26193.30122947  .00000019  00000+0  20084-4 0  9993
2 27386  98.3846 144.0613 0001342  83.9458  87.9189 14.39070376277099
IDEFIX & ARIANE 42P R/B 
1 27422U 02021B   26193.29966505  .00000087  00000+0  49606-4 0  9998
2 27422  98.5943 130.5111 0011709 174.8358 185.2948 14.31092973261840
AQUA                    
1 27424U 02022A   26193.31392713  .00000395  00000+0  88252-4 0  9990
2 27424  98.4293 163.1016 0000847 107.7540 358.1104 14.62194579286946
CZ-4B R/B               
1 27432U 02024C   26192.99432005  .00000002  00000+0  23597-4 0  9999
2 27432  98.8688 245.6518 0050634  31.0033  17.9338 14.14567830246817
MIDORI II (ADEOS-II)    
1 27597U 02056A   26192.84851306  .00000114  00000+0  62715-4 0  9998
2 27597  98.7892 152.3199 0001617  43.6524 316.4785 14.29362111228033
H-2A R/B                
1 27601U 02056E   26192.85358284  .00000121  00000+0  56699-4 0  9994
2 27601  98.3326 148.6307 0070692 150.7915 263.9999 14.33832769231908
CZ-4B R/B               
1 28059U 03049C   26192.98613462  .00000143  00000+0  44560-4 0  9999
2 28059  98.6908 192.8211 0047437 211.1841 148.6538 14.55114759204679
CZ-2C R/B               
1 28222U 04012C   26193.15106945  .00102383  00000+0  44260-3 0  9990
2 28222  97.7081 271.8195 0011580 200.8727 159.2071 15.84548107223841
SL-16 R/B               
1 28353U 04021B   26193.33474409  .00000076  00000+0  64403-4 0  9996
2 28353  71.0025 330.9110 0006413 227.3991 132.6591 14.14616031140461
CZ-4B R/B               
1 28415U 04035C   26193.03766097  .00004512  00000+0  15152-3 0  9999
2 28415  97.3361 225.8348 0029048 244.4773 115.3464 15.30964386198925
CZ-2C R/B               
1 28480U 04046B   26193.29341832  .00000042  00000+0  30430-4 0  9998
2 28480  98.1921 100.5024 0139974 145.9266 215.1000 14.27032494126275
ARIANE 5 R/B            
1 28499U 04049H   26192.44694273  .00000289  00000+0  38805-4 0  9994
2 28499  98.2738   5.6402 0082805 310.5973  48.8055 14.85476298164161
CZ-2D R/B               
1 28738U 05024B   26193.25211088  .00043805  00000+0  32907-3 0  9990
2 28738  97.3476 213.9831 0001945 201.2089 158.9094 15.72473171159272
ALOS (DAICHI)           
1 28931U 06002A   26192.86602976  .00000519  00000+0  94675-4 0  9994
2 28931  98.1336 148.3587 0000774  90.2748 269.8547 14.70098011 91720
